H1 CPF 01  gfz 2021 12 29 13  8632 terrasarx 
H2 0702601  6201 31698    2021 12 29 12 59 42 2022 01 03 00 00 42   120 1 1  0 0 0
H9
10 0 59581  65502.000000  0    1536661.488    804751.420  -6673225.442
10 0 59581  65622.000000  0    2414256.264    711358.041  -6419118.506
10 0 59581  65742.000000  0    3248138.670    590661.326  -6052974.302
10 0 59581  65862.000000  0    4023364.990    445641.302  -5581107.518
10 0 59581  65982.000000  0    4726034.765    279954.048  -5011673.655
10 0 59581  66102.000000  0    5343543.752     97850.703  -4354540.125
10 0 59581  66222.000000  0    5864817.653    -95919.072  -3621125.347
10 0 59581  66342.000000  0    6280520.232   -296216.965  -2824208.965
10 0 59581  66462.000000  0    6583233.179   -497637.337  -1977715.593
10 0 59581  66582.000000  0    6767601.739   -694637.108  -1096472.823
10 0 59581  66702.000000  0    6830440.825   -881670.725   -195949.373
10 0 59581  66822.000000  0    6770799.495  -1053327.513    708021.305
10 0 59581  66942.000000  0    6589980.859  -1204467.837   1599527.270
10 0 59581  67062.000000  0    6291517.145  -1330354.731   2462866.913
10 0 59581  67182.000000  0    5881098.217  -1426776.442   3282835.420
10 0 59581  67302.000000  0    5366457.069  -1490157.382   4044999.031
10 0 59581  67422.000000  0    4757215.827  -1517655.683   4735953.671
10 0 59581  67542.000000  0    4064696.085  -1507243.013   5343561.894
10 0 59581  67662.000000  0    3301699.483  -1457765.645   5857165.129
10 0 59581  67782.000000  0    2482261.887  -1368986.558   6267766.946
10 0 59581  67902.000000  0    1621389.093  -1241607.302   6568184.643
10 0 59581  68022.000000  0     734777.642  -1077269.461   6753169.666
10 0 59581  68142.000000  0    -161474.175   -878534.594   6819493.461
10 0 59581  68262.000000  0   -1051158.532   -648844.143   6765998.917
10 0 59581  68382.000000  0   -1918249.624   -392460.000   6593618.845
10 0 59581  68502.000000  0   -2747190.777   -114385.873   6305360.788
10 0 59581  68622.000000  0   -3523173.275    179729.034   5906258.997
10 0 59581  68742.000000  0   -4232403.556    483702.397   5403292.625
10 0 59581  68862.000000  0   -4862353.573    790945.520   4805269.610
10 0 59581  68982.000000  0   -5401989.602   1094602.299   4122678.206
10 0 59581  69102.000000  0   -5841974.101   1387697.886   3367506.358
10 0 59581  69222.000000  0   -6174836.126   1663293.627   2553033.211
10 0 59581  69342.000000  0   -6395107.411   1914644.737   1693594.936
10 0 59581  69462.000000  0   -6499420.440   2135357.193    804328.649
10 0 59581  69582.000000  0   -6486564.280   2319540.092    -99101.774
10 0 59581  69702.000000  0   -6357496.183   2461948.229  -1000790.404
10 0 59581  69822.000000  0   -6115309.476   2558112.010  -1884878.068
10 0 59581  69942.000000  0   -5765159.172   2604452.056  -2735839.631
10 0 59581  70062.000000  0   -5314145.279   2598374.773  -3538763.662
10 0 59581  70182.000000  0   -4771158.783   2538345.884  -4279616.300
10 0 59581  70302.000000  0   -4146695.687   2423941.539  -4945485.144
10 0 59581  70422.000000  0   -3452643.601   2255876.157  -5524798.361
10 0 59581  70542.000000  0   -2702048.127   2036007.311  -6007516.326
10 0 59581  70662.000000  0   -1908863.317   1767317.576  -6385295.922
10 0 59581  70782.000000  0   -1087689.226   1453873.321  -6651623.072
10 0 59581  70902.000000  0    -253505.474   1100762.225  -6801913.326
10 0 59581  71022.000000  0     578596.607    714010.948  -6833581.583
10 0 59581  71142.000000  0    1393679.621    300484.526  -6746083.352
10 0 59581  71262.000000  0    2177223.482   -132233.115  -6540923.576
10 0 59581  71382.000000  0    2915377.929   -575974.474  -6221632.968
10 0 59581  71502.000000  0    3595204.280  -1022138.201  -5793713.875
10 0 59581  71622.000000  0    4204900.364  -1461850.696  -5264554.353
10 0 59581  71742.000000  0    4734008.463  -1886138.889  -4643313.016
10 0 59581  71862.000000  0    5173600.788  -2286110.899  -3940771.342
10 0 59581  71982.000000  0    5516438.569  -2653140.142  -3169156.453
10 0 59581  72102.000000  0    5757101.821  -2979049.516  -2341935.245
10 0 59581  72222.000000  0    5892085.013  -3256291.369  -1473582.258
10 0 59581  72342.000000  0    5919856.237  -3478118.736   -579326.460
10 0 59581  72462.000000  0    5840877.995  -3638744.017    325119.683
10 0 59581  72582.000000  0    5657587.954  -3733480.385   1223842.532
10 0 59581  72702.000000  0    5374340.195  -3758862.741   2101016.719
10 0 59581  72822.000000  0    4997305.360  -3712742.095   2941193.416
10 0 59581  72942.000000  0    4534335.558  -3594353.493   3729579.433
10 0 59581  73062.000000  0    3994797.830  -3404354.884   4452302.957
10 0 59581  73182.000000  0    3389379.375  -3144837.875   5096661.509
10 0 59581  73302.000000  0    2729868.124  -2819307.728   5651345.179
10 0 59581  73422.000000  0    2028917.450  -2432634.468   6106632.136
10 0 59581  73542.000000  0    1299798.143  -1990977.373   6454553.933
10 0 59581  73662.000000  0     556143.856  -1501684.144   6689028.885
10 0 59581  73782.000000  0    -188305.353   -973166.190   6805962.327
10 0 59581  73902.000000  0    -919956.607   -414752.560   6803313.096
10 0 59581  74022.000000  0   -1625611.145    163474.662   6681126.505
10 0 59581  74142.000000  0   -2292701.431    750861.923   6441533.725
10 0 59581  74262.000000  0   -2909514.701   1336379.577   6088717.189
10 0 59581  74382.000000  0   -3465399.716   1908827.984   5628842.504
10 0 59581  74502.000000  0   -3950954.245   2457051.638   5069957.550
10 0 59581  74622.000000  0   -4358189.406   2970158.303   4421857.783
10 0 59581  74742.000000  0   -4680667.566   3437737.388   3695919.014
10 0 59581  74862.000000  0   -4913610.119   3850073.422   2904900.255
10 0 59581  74982.000000  0   -5053972.669   4198350.852   2062720.089
10 0 59581  75102.000000  0   -5100486.797   4474845.297   1184209.270
10 0 59581  75222.000000  0   -5053664.814   4673094.926    284842.916
10 0 59581  75342.000000  0   -4915768.592   4788046.553   -619539.476
10 0 59581  75462.000000  0   -4690743.672   4816175.641  -1513022.218
10 0 59581  75582.000000  0   -4384117.221   4755575.192  -2379903.514
10 0 59581  75702.000000  0   -4002865.458   4606010.029  -3204978.891
10 0 59581  75822.000000  0   -3555253.012   4368936.483  -3973812.411
10 0 59581  75942.000000  0   -3050649.536   4047488.175  -4672988.700
10 0 59581  76062.000000  0   -2499329.646   3646429.283  -5290341.856
10 0 59581  76182.000000  0   -1912261.793   3172078.379  -5815159.494
10 0 59581  76302.000000  0   -1300888.397   2632202.612  -6238359.976
10 0 59581  76422.000000  0    -676902.604   2035884.636  -6552638.386
10 0 59581  76542.000000  0     -52027.054   1393367.334  -6752580.738
10 0 59581  76662.000000  0     562201.544    715878.077  -6834747.454
10 0 59581  76782.000000  0    1154640.245     15435.982  -6797727.257
10 0 59581  76902.000000  0    1714738.094   -695357.499  -6642158.357
10 0 59581  77022.000000  0    2232718.997  -1403539.596  -6370717.416
10 0 59581  77142.000000  0    2699749.358  -2096016.517  -5988078.767
10 0 59581  77262.000000  0    3108087.685  -2759799.845  -5500843.109
10 0 59581  77382.000000  0    3451215.468  -3382249.060  -4917435.916
10 0 59581  77502.000000  0    3723944.683  -3951313.344  -4247970.801
10 0 59581  77622.000000  0    3922499.113  -4455766.009  -3504084.239
10 0 59581  77742.000000  0    4044570.709  -4885430.228  -2698742.988
10 0 59581  77862.000000  0    4089348.650  -5231391.195  -1846023.805
10 0 59581  77982.000000  0    4057517.236  -5486187.967   -960868.019
10 0 59581  78102.000000  0    3951224.039  -5643979.072    -58817.101
10 0 59581  78222.000000  0    3774017.438  -5700678.052    844266.266
10 0 59581  78342.000000  0    3530755.742  -5654055.110   1732484.958
10 0 59581  78462.000000  0    3227489.341  -5503800.565   2590197.467
10 0 59581  78582.000000  0    2871317.809  -5251548.869   3402300.996
10 0 59581  78702.000000  0    2470228.074  -4900864.351   4154503.588
10 0 59581  78822.000000  0    2032917.492  -4457187.908   4833579.795
10 0 59581  78942.000000  0    1568605.367  -3927746.298   5427604.525
10 0 59581  79062.000000  0    1086838.368  -3321426.857   5926161.512
10 0 59581  79182.000000  0     597292.691  -2648619.896   6320521.635
10 0 59581  79302.000000  0     109579.420  -1921034.545   6603788.723
10 0 59581  79422.000000  0    -366943.207  -1151491.515   6771013.281
10 0 59581  79542.000000  0    -823348.018   -353695.609   6819274.969
10 0 59581  79662.000000  0   -1251305.075    458009.412   6747730.507
10 0 59581  79782.000000  0   -1643233.210   1268898.345   6557627.173
10 0 59581  79902.000000  0   -1992434.096   2064130.695   6252282.324
10 0 59581  80022.000000  0   -2293207.486   2829021.741   5837029.252
10 0 59581  80142.000000  0   -2540945.098   3549314.655   5319129.427
10 0 59581  80262.000000  0   -2732202.764   4211449.019   4707652.572
10 0 59581  80382.000000  0   -2864749.356   4802821.789   4013323.722
10 0 59581  80502.000000  0   -2937590.355   5312034.590   3248338.944
10 0 59581  80622.000000  0   -2950965.517   5729121.487   2426151.820
10 0 59581  80742.000000  0   -2906320.826   6045751.306   1561235.182
10 0 59581  80862.000000  0   -2806255.088   6255400.325    668822.252
10 0 59581  80982.000000  0   -2654441.978   6353491.073   -235368.127
10 0 59581  81102.000000  0   -2455530.179   6337493.083  -1135417.017
10 0 59581  81222.000000  0   -2215023.630   6206982.266  -2015496.864
10 0 59581  81342.000000  0   -1939142.884   5963653.573  -2860159.815
10 0 59581  81462.000000  0   -1634674.005   5611291.742  -3654612.014
10 0 59581  81582.000000  0   -1308809.980   5155703.048  -4384973.831
10 0 59581  81702.000000  0    -968987.510   4604607.595  -5038519.802
10 0 59581  81822.000000  0    -622723.376   3967498.096  -5603894.067
10 0 59581  81942.000000  0    -277453.254   3255467.088  -6071300.173
99
